[Satellite]
VERSION=1.1
NAME=CZ-6A DEB
NICKNAME=CZ-6A DEB
TLE1=1 54330U 22151BZ  22342.25897704  .00001883  00000+0  93073-3 0  9995
TLE2=2 54330  98.8022 347.0435 0063164  85.7266 275.1124 14.17526218  3154
STATUS=0
